start=new Date('2021-10-14T00:00:00.000Z').valueOf();
sats=[{"INCLINATION":"53.0315","EPHEMERIS_TYPE":"0","GP_ID":"187103171","TLE_LINE2":"2 46379  53.0315 225.7126 0003851 160.7313 199.1482 16.01170787 64520","SITE":"AFETR","NORAD_CAT_ID":"46379","COUNTRY_CODE":"US","FILE":"3161151","RCS_SIZE":"LARGE","CLASSIFICATION_TYPE":"U","PERIOD":"89.934","ECCENTRICITY":"0.00038510","PERIAPSIS":"268.617","REV_AT_EPOCH":"6452","OBJECT_NAME":"STARLINK-1756","TIME_SYSTEM":"UTC","ELEMENT_SET_NO":"999","MEAN_ELEMENT_THEORY":"SGP4","CENTER_NAME":"EARTH","SEMIMAJOR_AXIS":"6649.312","ARG_OF_PERICENTER":"160.7313","DECAY_DATE":null,"OBJECT_ID":"2020-062BG","MEAN_MOTION_DOT":"0.01477180","BSTAR":"0.00267810000000","EPOCH":"2021-10-14T02:14:44.733984","REF_FRAME":"TEME","APOAPSIS":"273.738","MEAN_MOTION_DDOT":"0.0012567000000","RA_OF_ASC_NODE":"225.7126","OBJECT_TYPE":"PAYLOAD","LAUNCH_DATE":"2020-09-03","MEAN_ANOMALY":"199.1482","TLE_LINE1":"1 46379U 20062BG  21287.09357331  .01477180  12567-2  26781-2 0  9997","MEAN_MOTION":"16.01170787"},{"TIME_SYSTEM":"UTC","OBJECT_NAME":"STARLINK-1758","REV_AT_EPOCH":"6220","PERIOD":"95.592","ECCENTRICITY":"0.00010060","PERIAPSIS":"546.490","RCS_SIZE":"LARGE","CLASSIFICATION_TYPE":"U","COUNTRY_CODE":"US","FILE":"3160689","NORAD_CAT_ID":"46380","SITE":"AFETR","TLE_LINE2":"2 46380  53.0544  15.9329 0001006 101.1864 258.9238 15.06408862 62208","GP_ID":"187068444","EPHEMERIS_TYPE":"0","INCLINATION":"53.0544","MEAN_MOTION":"15.06408862","MEAN_ANOMALY":"258.9238","TLE_LINE1":"1 46380U 20062BH  21286.52870252  .00001588  00000-0  12545-3 0  9993","LAUNCH_DATE":"2020-09-03","MEAN_MOTION_DDOT":"0.0000000000000","RA_OF_ASC_NODE":"15.9329","OBJECT_TYPE":"PAYLOAD","REF_FRAME":"TEME","APOAPSIS":"547.883","EPOCH":"2021-10-13T12:41:19.897728","MEAN_MOTION_DOT":"0.00001588","BSTAR":"0.00012545000000","OBJECT_ID":"2020-062BH","DECAY_DATE":null,"MEAN_ELEMENT_THEORY":"SGP4","SEMIMAJOR_AXIS":"6925.321","ARG_OF_PERICENTER":"101.1864","CENTER_NAME":"EARTH","ELEMENT_SET_NO":"999"},{"PERIAPSIS":"546.341","ECCENTRICITY":"0.00011820","PERIOD":"95.591","REV_AT_EPOCH":"6254","OBJECT_NAME":"STARLINK-1769","TIME_SYSTEM":"UTC","NORAD_CAT_ID":"46382","FILE":"3160689","COUNTRY_CODE":"US","CLASSIFICATION_TYPE":"U","RCS_SIZE":"LARGE","GP_ID":"187069196","TLE_LINE2":"2 46382  53.0568 351.3264 0001182  88.2152 271.8972 15.06417618 62546","SITE":"AFETR","INCLINATION":"53.0568","EPHEMERIS_TYPE":"0","LAUNCH_DATE":"2020-09-03","TLE_LINE1":"1 46382U 20062BK  21286.44438472 -.00002276  00000-0 -13387-3 0  9992","MEAN_ANOMALY":"271.8972","MEAN_MOTION":"15.06417618","BSTAR":"-0.00013387000000","MEAN_MOTION_DOT":"-0.00002276","EPOCH":"2021-10-13T10:39:54.839808","APOAPSIS":"547.978","REF_FRAME":"TEME","OBJECT_TYPE":"PAYLOAD","RA_OF_ASC_NODE":"351.3264","MEAN_MOTION_DDOT":"0.0000000000000","DECAY_DATE":null,"OBJECT_ID":"2020-062BK","ELEMENT_SET_NO":"999","ARG_OF_PERICENTER":"88.2152","SEMIMAJOR_AXIS":"6925.295","CENTER_NAME":"EARTH","MEAN_ELEMENT_THEORY":"SGP4"},{"INCLINATION":"53.0559","EPHEMERIS_TYPE":"0","TLE_LINE2":"2 46383  53.0559  35.7796 0001250  99.0238 261.0892 15.06396728 61922","SITE":"AFETR","GP_ID":"187068947","CLASSIFICATION_TYPE":"U","RCS_SIZE":"LARGE","NORAD_CAT_ID":"46383","FILE":"3160689","COUNTRY_CODE":"US","REV_AT_EPOCH":"6192","OBJECT_NAME":"STARLINK-1770","TIME_SYSTEM":"UTC","PERIAPSIS":"546.358","ECCENTRICITY":"0.00012500","PERIOD":"95.592","SEMIMAJOR_AXIS":"6925.359","CENTER_NAME":"EARTH","ARG_OF_PERICENTER":"99.0238","MEAN_ELEMENT_THEORY":"SGP4","ELEMENT_SET_NO":"999","DECAY_DATE":null,"OBJECT_ID":"2020-062BL","APOAPSIS":"548.089","REF_FRAME":"TEME","RA_OF_ASC_NODE":"35.7796","OBJECT_TYPE":"PAYLOAD","MEAN_MOTION_DDOT":"0.0000000000000","BSTAR":"0.00008382300000","MEAN_MOTION_DOT":"0.00000967","EPOCH":"2021-10-13T13:31:45.500448","MEAN_MOTION":"15.06396728","LAUNCH_DATE":"2020-09-03","MEAN_ANOMALY":"261.0892","TLE_LINE1":"1 46383U 20062BL  21286.56372107  .00000967  00000-0  83823-4 0  9994"},{"INCLINATION":"53.0561","EPHEMERIS_TYPE":"0","GP_ID":"187067695","TLE_LINE2":"2 46384  53.0561  35.7510 0001317  92.5815 267.5325 15.06403400 61921","SITE":"AFETR","NORAD_CAT_ID":"46384","COUNTRY_CODE":"US","FILE":"3160689","RCS_SIZE":"LARGE","CLASSIFICATION_TYPE":"U","PERIOD":"95.592","PERIAPSIS":"546.291","ECCENTRICITY":"0.00013170","REV_AT_EPOCH":"6192","TIME_SYSTEM":"UTC","OBJECT_NAME":"STARLINK-1771","ELEMENT_SET_NO":"999","MEAN_ELEMENT_THEORY":"SGP4","ARG_OF_PERICENTER":"92.5815","SEMIMAJOR_AXIS":"6925.338","CENTER_NAME":"EARTH","DECAY_DATE":null,"OBJECT_ID":"2020-062BM","MEAN_MOTION_DOT":"0.00000487","BSTAR":"0.00005158500000","EPOCH":"2021-10-13T13:37:04.039968","REF_FRAME":"TEME","APOAPSIS":"548.115","MEAN_MOTION_DDOT":"0.0000000000000","OBJECT_TYPE":"PAYLOAD","RA_OF_ASC_NODE":"35.7510","LAUNCH_DATE":"2020-09-03","TLE_LINE1":"1 46384U 20062BM  21286.56740787  .00000487  00000-0  51585-4 0  9995","MEAN_ANOMALY":"267.5325","MEAN_MOTION":"15.06403400"},{"SEMIMAJOR_AXIS":"6925.346","ARG_OF_PERICENTER":"72.5198","CENTER_NAME":"EARTH","MEAN_ELEMENT_THEORY":"SGP4","ELEMENT_SET_NO":"999","OBJECT_ID":"2020-070A","DECAY_DATE":null,"OBJECT_TYPE":"PAYLOAD","RA_OF_ASC_NODE":"194.2766","MEAN_MOTION_DDOT":"0.0000000000000","APOAPSIS":"548.383","REF_FRAME":"TEME","EPOCH":"2021-10-13T21:34:45.595776","BSTAR":"0.00003733000000","MEAN_MOTION_DOT":"0.00000274","MEAN_MOTION":"15.06400890","MEAN_ANOMALY":"287.5975","TLE_LINE1":"1 46532U 20070A   21286.89913884  .00000274  00000-0  37330-4 0  9991","LAUNCH_DATE":"2020-10-06","EPHEMERIS_TYPE":"0","INCLINATION":"53.0531","SITE":"AFETR","TLE_LINE2":"2 46532  53.0531 194.2766 0001692  72.5198 287.5975 15.06400890 57170","GP_ID":"187102098","CLASSIFICATION_TYPE":"U","RCS_SIZE":"LARGE","FILE":"3161149","COUNTRY_CODE":"US","NORAD_CAT_ID":"46532","TIME_SYSTEM":"UTC","OBJECT_NAME":"STARLINK-1644","REV_AT_EPOCH":"5717","ECCENTRICITY":"0.00016920","PERIAPSIS":"546.039","PERIOD":"95.592"},{"EPHEMERIS_TYPE":"0","INCLINATION":"53.0550","GP_ID":"187100350","SITE":"AFETR","TLE_LINE2":"2 46533  53.0550 194.2401 0001742  62.1902 297.9264 15.06398430 57174","COUNTRY_CODE":"US","FILE":"3161149","NORAD_CAT_ID":"46533","RCS_SIZE":"LARGE","CLASSIFICATION_TYPE":"U","PERIOD":"95.592","PERIAPSIS":"546.012","ECCENTRICITY":"0.00017420","TIME_SYSTEM":"UTC","OBJECT_NAME":"STARLINK-1648","REV_AT_EPOCH":"5717","ELEMENT_SET_NO":"999","MEAN_ELEMENT_THEORY":"SGP4","CENTER_NAME":"EARTH","SEMIMAJOR_AXIS":"6925.353","ARG_OF_PERICENTER":"62.1902","OBJECT_ID":"2020-070B","DECAY_DATE":null,"EPOCH":"2021-10-13T21:50:41.327520","MEAN_MOTION_DOT":"0.00000276","BSTAR":"0.00003742200000","MEAN_MOTION_DDOT":"0.0000000000000","OBJECT_TYPE":"PAYLOAD","RA_OF_ASC_NODE":"194.2401","REF_FRAME":"TEME","APOAPSIS":"548.425","TLE_LINE1":"1 46533U 20070B   21286.91020055  .00000276  00000-0  37422-4 0  9998","MEAN_ANOMALY":"297.9264","LAUNCH_DATE":"2020-10-06","MEAN_MOTION":"15.06398430"},{"MEAN_MOTION":"15.06364927","LAUNCH_DATE":"2020-10-06","MEAN_ANOMALY":"334.4740","TLE_LINE1":"1 46534U 20070C   21286.95814513 -.00004127  00000-0 -25848-3 0  9992","REF_FRAME":"TEME","APOAPSIS":"549.337","MEAN_MOTION_DDOT":"0.0000000000000","RA_OF_ASC_NODE":"194.0111","OBJECT_TYPE":"PAYLOAD","MEAN_MOTION_DOT":"-0.00004127","BSTAR":"-0.00025848000000","EPOCH":"2021-10-13T22:59:43.739232","DECAY_DATE":null,"OBJECT_ID":"2020-070C","MEAN_ELEMENT_THEORY":"SGP4","SEMIMAJOR_AXIS":"6925.456","CENTER_NAME":"EARTH","ARG_OF_PERICENTER":"25.6393","ELEMENT_SET_NO":"999","REV_AT_EPOCH":"5718","OBJECT_NAME":"STARLINK-1659","TIME_SYSTEM":"UTC","PERIOD":"95.594","PERIAPSIS":"545.305","ECCENTRICITY":"0.00029110","RCS_SIZE":"LARGE","CLASSIFICATION_TYPE":"U","NORAD_CAT_ID":"46534","COUNTRY_CODE":"US","FILE":"3161149","TLE_LINE2":"2 46534  53.0534 194.0111 0002911  25.6393 334.4740 15.06364927 57181","SITE":"AFETR","GP_ID":"187100600","INCLINATION":"53.0534","EPHEMERIS_TYPE":"0"},{"OBJECT_ID":"2020-070D","DECAY_DATE":null,"SEMIMAJOR_AXIS":"6925.304","CENTER_NAME":"EARTH","ARG_OF_PERICENTER":"74.5650","MEAN_ELEMENT_THEORY":"SGP4","ELEMENT_SET_NO":"999","MEAN_MOTION":"15.06414636","MEAN_ANOMALY":"285.5529","TLE_LINE1":"1 46535U 20070D   21286.94706642  .00000817  00000-0  73707-4 0  9993","LAUNCH_DATE":"2020-10-06","RA_OF_ASC_NODE":"194.0657","OBJECT_TYPE":"PAYLOAD","MEAN_MOTION_DDOT":"0.0000000000000","APOAPSIS":"548.365","REF_FRAME":"TEME","EPOCH":"2021-10-13T22:43:46.538688","BSTAR":"0.00007370700000","MEAN_MOTION_DOT":"0.00000817","SITE":"AFETR","TLE_LINE2":"2 46535  53.0522 194.0657 0001728  74.5650 285.5529 15.06414636 57171","GP_ID":"187101352","EPHEMERIS_TYPE":"0","INCLINATION":"53.0522","TIME_SYSTEM":"UTC","OBJECT_NAME":"STARLINK-1663","REV_AT_EPOCH":"5717","ECCENTRICITY":"0.00017280","PERIAPSIS":"545.972","PERIOD":"95.591","CLASSIFICATION_TYPE":"U","RCS_SIZE":"LARGE","FILE":"3161149","COUNTRY_CODE":"US","NORAD_CAT_ID":"46535"},{"NORAD_CAT_ID":"46536","COUNTRY_CODE":"US","FILE":"3161149","RCS_SIZE":"LARGE","CLASSIFICATION_TYPE":"U","PERIOD":"92.549","PERIAPSIS":"398.556","ECCENTRICITY":"0.00013300","REV_AT_EPOCH":"5745","TIME_SYSTEM":"UTC","OBJECT_NAME":"STARLINK-1668","INCLINATION":"53.0532","EPHEMERIS_TYPE":"0","GP_ID":"187101599","TLE_LINE2":"2 46536  53.0532 174.6659 0001330  75.7304 284.3854 15.55928455 57459","SITE":"AFETR","MEAN_MOTION_DOT":"0.00039576","BSTAR":"0.00056442000000","EPOCH":"2021-10-13T22:38:00.946464","REF_FRAME":"TEME","APOAPSIS":"400.358","MEAN_MOTION_DDOT":"0.0000000000000","OBJECT_TYPE":"PAYLOAD","RA_OF_ASC_NODE":"174.6659","LAUNCH_DATE":"2020-10-06","TLE_LINE1":"1 46536U 20070E   21286.94306651  .00039576  00000-0  56442-3 0  9990","MEAN_ANOMALY":"284.3854","MEAN_MOTION":"15.55928455","ELEMENT_SET_NO":"999","MEAN_ELEMENT_THEORY":"SGP4","SEMIMAJOR_AXIS":"6777.592","CENTER_NAME":"EARTH","ARG_OF_PERICENTER":"75.7304","DECAY_DATE":null,"OBJECT_ID":"2020-070E"}];
